{"type": "FeatureCollection", "features": [ {"type": "Feature", "properties": {"norad_id": 36048, "name": "COSMOS 2251 DEB", "group": "cosmos-2251-debris", "lat": 67.29648898031408, "lon": -44.50185393656722, "alt_km": 766.4436806241938, "timestamp": "2025-12-27T08:36:18.781712+00:00", "meta": {"OBJECT_NAME": "COSMOS 2251 DEB", "OBJECT_ID": "1993-036AXK", "EPOCH": "2025-12-26T11:06:59.253120", "MEAN_MOTION": 14.37874614, "ECCENTRICITY": 0.0027119, "INCLINATION": 74.0571, "RA_OF_ASC_NODE": 274.0472, "ARG_OF_PERICENTER": 321.5675, "MEAN_ANOMALY": 158.955, "EPHEMERIS_TYPE": 0, "CLASSIFICATION_TYPE": "U", "NORAD_CAT_ID": 36048, "ELEMENT_SET_NO": 999, "REV_AT_EPOCH": 85699, "BSTAR": 0.00026847, "MEAN_MOTION_DOT": 7.87e-06, "MEAN_MOTION_DDOT": 0}, "tle": {"line1": "1 36048U 93036AXK 25360.46318580  .00000787  00000+0  26847-3 0  9994", "line2": "2 36048  74.0571 274.0472 0027119 321.5675 158.9550 14.37874614856997"}}, "geometry": {"type": "Point", "coordinates": [-44.50185393656722, 67.29648898031408]}}, {"type": "Feature", "properties": {"norad_id": 36049, "name": "COSMOS 2251 DEB", "group": "cosmos-2251-debris", "lat": 19.90739893320173, "lon": 97.13026869896783, "alt_km": 691.8049103131525, "timestamp": "2025-12-27T08:36:18.781722+00:00", "meta": {"OBJECT_NAME": "COSMOS 2251 DEB", "OBJECT_ID": "1993-036AXL", "EPOCH": "2025-12-26T16:05:29.446944", "MEAN_MOTION": 14.62322708, "ECCENTRICITY": 0.00097717, "INCLINATION": 74.0312, "RA_OF_ASC_NODE": 92.4958, "ARG_OF_PERICENTER": 180.7099, "MEAN_ANOMALY": 179.4056, "EPHEMERIS_TYPE": 0, "CLASSIFICATION_TYPE": "U", "NORAD_CAT_ID": 36049, "ELEMENT_SET_NO": 999, "REV_AT_EPOCH": 85568, "BSTAR": 0.0013628703, "MEAN_MOTION_DOT": 6.864e-05, "MEAN_MOTION_DDOT": 0}, "tle": {"line1": "1 36049U 93036AXL 25360.67047971  .00006864  00000+0  13629-2 0  9996", "line2": "2 36049  74.0312  92.4958 0009771 180.7099 179.4056 14.62322708855685"}}, "geometry": {"type": "Point", "coordinates": [97.13026869896783, 19.90739893320173]}}, {"type": "Feature", "properties": {"norad_id": 36050, "name": "COSMOS 2251 DEB", "group": "cosmos-2251-debris", "lat": -20.72055833382854, "lon": 158.031308159537, "alt_km": 576.0563013966193, "timestamp": "2025-12-27T08:36:18.781732+00:00", "meta": {"OBJECT_NAME": "COSMOS 2251 DEB", "OBJECT_ID": "1993-036AXM", "EPOCH": "2025-12-23T18:20:06.375552", "MEAN_MOTION": 15.01191833, "ECCENTRICITY": 0.00883826, "INCLINATION": 74.0302, "RA_OF_ASC_NODE": 171.57, "ARG_OF_PERICENTER": 248.7055, "MEAN_ANOMALY": 110.468, "EPHEMERIS_TYPE": 0, "CLASSIFICATION_TYPE": "U", "NORAD_CAT_ID": 36050, "ELEMENT_SET_NO": 999, "REV_AT_EPOCH": 67200, "BSTAR": 0.00066513085, "MEAN_MOTION_DOT": 9.246e-05, "MEAN_MOTION_DDOT": 0}, "tle": {"line1": "1 36050U 93036AXM 25357.76396268  .00009246  00000+0  66513-3 0  9998", "line2": "2 36050  74.0302 171.5700 0088382 248.7055 110.4680 15.01191833672000"}}, "geometry": {"type": "Point", "coordinates": [158.031308159537, -20.72055833382854]}}, {"type": "Feature", "properties": {"norad_id": 36053, "name": "COSMOS 2251 DEB", "group": "cosmos-2251-debris", "lat": 71.95392501504298, "lon": -118.0159483299999, "alt_km": 674.3759288890742, "timestamp": "2025-12-27T08:36:18.781742+00:00", "meta": {"OBJECT_NAME": "COSMOS 2251 DEB", "OBJECT_ID": "1993-036AXQ", "EPOCH": "2025-12-26T00:51:23.527872", "MEAN_MOTION": 14.57338547, "ECCENTRICITY": 0.00324806, "INCLINATION": 73.8704, "RA_OF_ASC_NODE": 127.1707, "ARG_OF_PERICENTER": 71.5947, "MEAN_ANOMALY": 288.8743, "EPHEMERIS_TYPE": 0, "CLASSIFICATION_TYPE": "U", "NORAD_CAT_ID": 36053, "ELEMENT_SET_NO": 999, "REV_AT_EPOCH": 87638, "BSTAR": 0.0014377554, "MEAN_MOTION_DOT": 6.535e-05, "MEAN_MOTION_DDOT": 0}, "tle": {"line1": "1 36053U 93036AXQ 25360.03568898  .00006535  00000+0  14378-2 0  9994", "line2": "2 36053  73.8704 127.1707 0032480  71.5947 288.8743 14.57338547876382"}}, "geometry": {"type": "Point", "coordinates": [-118.0159483299999, 71.95392501504298]}}, {"type": "Feature", "properties": {"norad_id": 36058, "name": "COSMOS 2251 DEB", "group": "cosmos-2251-debris", "lat": -55.65835877066678, "lon": -19.191399173600335, "alt_km": 734.0163514020915, "timestamp": "2025-12-27T08:36:18.781752+00:00", "meta": {"OBJECT_NAME": "COSMOS 2251 DEB", "OBJECT_ID": "1993-036AXV", "EPOCH": "2025-12-20T18:52:04.818432", "MEAN_MOTION": 14.58726339, "ECCENTRICITY": 0.00440828, "INCLINATION": 74.0229, "RA_OF_ASC_NODE": 18.1226, "ARG_OF_PERICENTER": 150.2394, "MEAN_ANOMALY": 210.1292, "EPHEMERIS_TYPE": 0, "CLASSIFICATION_TYPE": "U", "NORAD_CAT_ID": 36058, "ELEMENT_SET_NO": 999, "REV_AT_EPOCH": 66228, "BSTAR": 0.0002931852, "MEAN_MOTION_DOT": 1.357e-05, "MEAN_MOTION_DDOT": 0}, "tle": {"line1": "1 36058U 93036AXV 25354.78616688  .00001357  00000+0  29319-3 0  9994", "line2": "2 36058  74.0229  18.1226 0044082 150.2394 210.1292 14.58726339662289"}}, "geometry": {"type": "Point", "coordinates": [-19.191399173600335, -55.65835877066678]}}, {"type": "Feature", "properties": {"norad_id": 36060, "name": "COSMOS 2251 DEB", "group": "cosmos-2251-debris", "lat": 42.893444526960806, "lon": -137.11203831383847, "alt_km": 750.2428374132533, "timestamp": "2025-12-27T08:36:18.781762+00:00", "meta": {"OBJECT_NAME": "COSMOS 2251 DEB", "OBJECT_ID": "1993-036AXX", "EPOCH": "2025-12-26T20:44:31.560288", "MEAN_MOTION": 14.42028331, "ECCENTRICITY": 0.00156628, "INCLINATION": 74.0274, "RA_OF_ASC_NODE": 208.3726, "ARG_OF_PERICENTER": 303.9859, "MEAN_ANOMALY": 55.9808, "EPHEMERIS_TYPE": 0, "CLASSIFICATION_TYPE": "U", "NORAD_CAT_ID": 36060, "ELEMENT_SET_NO": 999, "REV_AT_EPOCH": 85213, "BSTAR": 0.00030100032, "MEAN_MOTION_DOT": 9.63e-06, "MEAN_MOTION_DDOT": 0}, "tle": {"line1": "1 36060U 93036AXX 25360.86425417  .00000963  00000+0  30100-3 0  9993", "line2": "2 36060  74.0274 208.3726 0015662 303.9859  55.9808 14.42028331852138"}}, "geometry": {"type": "Point", "coordinates": [-137.11203831383847, 42.893444526960806]}}, {"type": "Feature", "properties": {"norad_id": 36061, "name": "COSMOS 2251 DEB", "group": "cosmos-2251-debris", "lat": 27.92482215439124, "lon": 144.2675122805504, "alt_km": 779.6412366342511, "timestamp": "2025-12-27T08:36:18.781795+00:00", "meta": {"OBJECT_NAME": "COSMOS 2251 DEB", "OBJECT_ID": "1993-036AXY", "EPOCH": "2025-12-27T04:33:31.942656", "MEAN_MOTION": 14.3373289, "ECCENTRICITY": 0.0037077, "INCLINATION": 74.0245, "RA_OF_ASC_NODE": 333.3093, "ARG_OF_PERICENTER": 56.7156, "MEAN_ANOMALY": 303.7539, "EPHEMERIS_TYPE": 0, "CLASSIFICATION_TYPE": "U", "NORAD_CAT_ID": 36061, "ELEMENT_SET_NO": 999, "REV_AT_EPOCH": 65311, "BSTAR": 0.00037461, "MEAN_MOTION_DOT": 1.022e-05, "MEAN_MOTION_DDOT": 0}, "tle": {"line1": "1 36061U 93036AXY 25361.18995304  .00001022  00000+0  37461-3 0  9991", "line2": "2 36061  74.0245 333.3093 0037077  56.7156 303.7539 14.33732890653114"}}, "geometry": {"type": "Point", "coordinates": [144.2675122805504, 27.92482215439124]}}, {"type": "Feature", "properties": {"norad_id": 36073, "name": "COSMOS 2251 DEB", "group": "cosmos-2251-debris", "lat": -45.824020183640236, "lon": -81.38159695203211, "alt_km": 769.787538493485, "timestamp": "2025-12-27T08:36:18.781806+00:00", "meta": {"OBJECT_NAME": "COSMOS 2251 DEB", "OBJECT_ID": "1993-036AYL", "EPOCH": "2025-12-27T02:08:09.358080", "MEAN_MOTION": 14.34971678, "ECCENTRICITY": 0.0024453, "INCLINATION": 74.0317, "RA_OF_ASC_NODE": 296.2512, "ARG_OF_PERICENTER": 0.2283, "MEAN_ANOMALY": 359.8876, "EPHEMERIS_TYPE": 0, "CLASSIFICATION_TYPE": "U", "NORAD_CAT_ID": 36073, "ELEMENT_SET_NO": 999, "REV_AT_EPOCH": 70413, "BSTAR": 0.00027005, "MEAN_MOTION_DOT": 7.45e-06, "MEAN_MOTION_DDOT": 0}, "tle": {"line1": "1 36073U 93036AYL 25361.08899720  .00000745  00000+0  27005-3 0  9992", "line2": "2 36073  74.0317 296.2512 0024453   0.2283 359.8876 14.34971678704134"}}, "geometry": {"type": "Point", "coordinates": [-81.38159695203211, -45.824020183640236]}}, {"type": "Feature", "properties": {"norad_id": 36074, "name": "COSMOS 2251 DEB", "group": "cosmos-2251-debris", "lat": -12.367599678718948, "lon": 136.84514329017102, "alt_km": 776.231145222464, "timestamp": "2025-12-27T08:36:18.781816+00:00", "meta": {"OBJECT_NAME": "COSMOS 2251 DEB", "OBJECT_ID": "1993-036AYM", "EPOCH": "2025-12-22T22:57:11.517120", "MEAN_MOTION": 14.43796912, "ECCENTRICITY": 0.0041956, "INCLINATION": 73.994, "RA_OF_ASC_NODE": 321.4388, "ARG_OF_PERICENTER": 50.2945, "MEAN_ANOMALY": 310.1898, "EPHEMERIS_TYPE": 0, "CLASSIFICATION_TYPE": "U", "NORAD_CAT_ID": 36074, "ELEMENT_SET_NO": 999, "REV_AT_EPOCH": 86057, "BSTAR": 0.001160749, "MEAN_MOTION_DOT": 3.969e-05, "MEAN_MOTION_DDOT": 0}, "tle": {"line1": "1 36074U 93036AYM 25356.95638330  .00003969  00000+0  11607-2 0  9992", "line2": "2 36074  73.9940 321.4388 0041956  50.2945 310.1898 14.43796912860575"}}, "geometry": {"type": "Point", "coordinates": [136.84514329017102, -12.367599678718948]}}, {"type": "Feature", "properties": {"norad_id": 36366, "name": "COSMOS 2251 DEB", "group": "cosmos-2251-debris", "lat": -52.19900981900551, "lon": -135.22896768156127, "alt_km": 732.6317195378133, "timestamp": "2025-12-27T08:36:18.781827+00:00", "meta": {"OBJECT_NAME": "COSMOS 2251 DEB", "OBJECT_ID": "1993-036AYT", "EPOCH": "2025-12-27T02:09:38.884032", "MEAN_MOTION": 14.33508161, "ECCENTRICITY": 0.0089876, "INCLINATION": 74.0647, "RA_OF_ASC_NODE": 246.873, "ARG_OF_PERICENTER": 272.1361, "MEAN_ANOMALY": 86.9501, "EPHEMERIS_TYPE": 0, "CLASSIFICATION_TYPE": "U", "NORAD_CAT_ID": 36366, "ELEMENT_SET_NO": 999, "REV_AT_EPOCH": 86494, "BSTAR": 0.0015398, "MEAN_MOTION_DOT": 4.429e-05, "MEAN_MOTION_DDOT": 0}, "tle": {"line1": "1 36366U 93036AYT 25361.09003338  .00004429  00000+0  15398-2 0  9994", "line2": "2 36366  74.0647 246.8730 0089876 272.1361  86.9501 14.33508161864946"}}, "geometry": {"type": "Point", "coordinates": [-135.22896768156127, -52.19900981900551]}}]}